NORAD_CAT_ID,OBJECT_NAME,OBJECT_TYPE,EPOCH,MEAN_MOTION,ECCENTRICITY,INCLINATION,RA_OF_ASC_NODE,ARG_OF_PERICENTER,MEAN_ANOMALY,BSTAR,MEAN_MOTION_DOT,MEAN_MOTION_DDOT,TLE_LINE0,TLE_LINE1,TLE_LINE2,SEMIMAJOR_AXIS,PERIOD,APOGEE,PERIGEE,DECAYED
52617.0,STARLINK-3996,PAYLOAD,2024-07-17 22:35:19,15.08840275,0.0001636,53.2182,81.491,122.1663,237.9488,4.0223e-05,3.52e-06,0.0,0 STARLINK-3996,1 52617U 22052V   24199.94119623  .00000352  00000-0  40223-4 0  9997,2 52617  53.2182  81.4910 0001636 122.1663 237.9488 15.08840275120446,6917.88,95.438,540.876,538.613,0.0
52617.0,STARLINK-3996,PAYLOAD,2024-07-18 09:43:01,15.08838905,0.0001519,53.2175,79.416,98.3152,261.8013,0.00010556,1.392e-05,0.0,0 STARLINK-3996,1 52617U 22052V   24200.40488047  .00001392  00000-0  10556-3 0  9990,2 52617  53.2175  79.4160 0001519  98.3152 261.8013 15.08838905120514,6917.884,95.438,540.8,538.698,0.0
52617.0,STARLINK-3996,PAYLOAD,2024-07-18 20:50:43,15.08841428,0.0001605,53.218,77.3352,96.4672,263.6503,0.00016812,2.389e-05,0.0,0 STARLINK-3996,1 52617U 22052V   24200.86856140  .00002389  00000-0  16812-3 0  9991,2 52617  53.2180  77.3352 0001605  96.4672 263.6503 15.08841428120969,6917.876,95.437,540.851,538.631,0.0
52617.0,STARLINK-3996,PAYLOAD,2024-07-19 03:12:15,15.08854892,9.75e-05,53.2169,76.1484,79.3494,280.7608,0.00038612,5.865e-05,0.0,0 STARLINK-3996,1 52617U 22052V   24201.13351218  .00005865  00000-0  38612-3 0  9992,2 52617  53.2169  76.1484 0000975  79.3494 280.7608 15.08854892121001,6917.835,95.437,540.374,539.025,0.0
52617.0,STARLINK-3996,PAYLOAD,2024-07-19 20:41:31,15.08835749,0.0001842,53.2187,72.8843,48.3049,311.8101,0.00015417,2.166e-05,0.0,0 STARLINK-3996,1 52617U 22052V   24201.86216764  .00002166  00000-0  15417-3 0  9997,2 52617  53.2187  72.8843 0001842  48.3049 311.8101 15.08835749121115,6917.893,95.438,541.033,538.484,0.0
52617.0,STARLINK-3996,PAYLOAD,2024-07-19 22:16:54,15.0884379,0.0001355,53.2178,72.585,75.1601,284.9541,0.00027219,4.047e-05,0.0,0 STARLINK-3996,1 52617U 22052V   24201.92840364  .00004047  00000-0  27219-3 0  9996,2 52617  53.2178  72.5850 0001355  75.1601 284.9541 15.08843790120742,6917.869,95.437,540.671,538.796,0.0
52617.0,STARLINK-3996,PAYLOAD,2024-07-20 01:27:40,15.08847324,0.0001441,53.2168,71.9821,84.0878,276.0279,0.00029722,4.446e-05,0.0,0 STARLINK-3996,1 52617U 22052V   24202.06088111  .00004446  00000-0  29722-3 0  9990,2 52617  53.2168  71.9821 0001441  84.0878 276.0279 15.08847324121145,6917.858,95.437,540.72,538.726,0.0
52617.0,STARLINK-3996,PAYLOAD,2024-07-20 07:49:12,15.08842276,0.0001133,53.2157,70.7908,78.8378,281.2741,0.00015582,2.193e-05,0.0,0 STARLINK-3996,1 52617U 22052V   24202.32584211  .00002193  00000-0  15582-3 0  9997,2 52617  53.2157  70.7908 0001133  78.8378 281.2741 15.08842276120805,6917.873,95.437,540.522,538.955,0.0
52617.0,STARLINK-3996,PAYLOAD,2024-07-20 20:32:17,15.08837762,0.0001303,53.2175,68.4118,94.4825,265.6316,5.0022e-05,5.08e-06,0.0,0 STARLINK-3996,1 52617U 22052V   24202.85576374  .00000508  00000-0  50022-4 0  9993,2 52617  53.2175  68.4118 0001303  94.4825 265.6316 15.08837762121261,6917.887,95.438,540.654,538.851,0.0
52617.0,STARLINK-3996,PAYLOAD,2024-07-20 22:07:41,15.08839481,9.8e-05,53.2159,68.1185,82.8404,277.27,0.00010813,1.434e-05,0.0,0 STARLINK-3996,1 52617U 22052V   24202.92200307  .00001434  00000-0  10813-3 0  9993,2 52617  53.2159  68.1185 0000980  82.8404 277.2700 15.08839481120892,6917.882,95.438,540.425,539.069,0.0
52617.0,STARLINK-3996,PAYLOAD,2024-07-21 20:23:05,15.08838686,0.00013,53.2156,63.9521,77.9908,282.123,-3.7865e-06,-3.48e-06,0.0,0 STARLINK-3996,1 52617U 22052V   24203.84936584 -.00000348  00000-0 -37865-5 0  9991,2 52617  53.2156  63.9521 0001300  77.9908 282.1230 15.08838686121033,6917.884,95.438,540.649,538.85,0.0
52617.0,STARLINK-3996,PAYLOAD,2024-07-22 13:52:20,15.08834061,0.0001159,53.2155,60.6836,81.3144,278.798,7.5983e-05,9.21e-06,0.0,0 STARLINK-3996,1 52617U 22052V   24204.57801052  .00000921  00000-0  75983-4 0  9990,2 52617  53.2155  60.6836 0001159  81.3144 278.7980 15.08834061121146,6917.899,95.438,540.565,538.962,0.0
52617.0,STARLINK-3996,PAYLOAD,2024-07-22 21:49:15,15.08846149,0.0001347,53.2159,59.201,110.5459,249.5678,1.7948e-05,-2e-08,0.0,0 STARLINK-3996,1 52617U 22052V   24204.90920337 -.00000002  00000-0  17948-4 0  9993,2 52617  53.2159  59.2010 0001347 110.5459 249.5678 15.08846149121196,6917.862,95.437,540.658,538.795,0.0
52617.0,STARLINK-3996,PAYLOAD,2024-07-23 01:00:01,15.0885372,0.0001329,53.2151,58.6023,109.4298,250.6838,0.0001261,1.72e-05,0.0,0 STARLINK-3996,1 52617U 22052V   24205.04167894  .00001720  00000-0  12610-3 0  9997,2 52617  53.2151  58.6023 0001329 109.4298 250.6838 15.08853720121591,6917.838,95.437,540.623,538.784,0.0
52617.0,STARLINK-3996,PAYLOAD,2024-07-23 07:21:34,15.08844601,0.0001965,53.2165,57.411,85.0356,275.086,9.9714e-05,1.299e-05,0.0,0 STARLINK-3996,1 52617U 22052V   24205.30664533  .00001299  00000-0  99714-4 0  9990,2 52617  53.2165  57.4110 0001965  85.0356 275.0860 15.08844601121639,6917.866,95.437,541.091,538.372,0.0
52617.0,STARLINK-3996,PAYLOAD,2024-07-24 13:33:54,15.08839749,0.0002159,53.2131,51.7648,81.6911,278.4325,6.2955e-05,7.14e-06,0.0,0 STARLINK-3996,1 52617U 22052V   24206.56521258  .00000714  00000-0  62955-4 0  9993,2 52617  53.2131  51.7648 0002159  81.6911 278.4325 15.08839749121449,6917.881,95.438,541.24,538.253,0.0
52617.0,STARLINK-3996,PAYLOAD,2024-07-24 23:06:13,15.08842856,0.0002717,53.2118,49.9811,77.5964,282.5332,0.00013027,1.786e-05,0.0,0 STARLINK-3996,1 52617U 22052V   24206.96265250  .00001786  00000-0  13027-3 0  9999,2 52617  53.2118  49.9811 0002717  77.5964 282.5332 15.08842856121501,6917.872,95.437,541.616,537.857,0.0
52617.0,STARLINK-3996,PAYLOAD,2024-07-25 19:46:12,15.08858521,0.000139,53.2144,46.1077,124.5409,235.5715,0.0002536,3.752e-05,0.0,0 STARLINK-3996,1 52617U 22052V   24207.82375247  .00003752  00000-0  25360-3 0  9991,2 52617  53.2144  46.1077 0001390 124.5409 235.5715 15.08858521122012,6917.824,95.436,540.65,538.727,0.0
52617.0,STARLINK-3996,PAYLOAD,2024-07-26 21:12:22,15.08845251,6.6e-06,53.2207,41.3561,17.3679,342.7316,-0.00016234,-2.87e-05,0.0,0 STARLINK-3996,1 52617U 22052V   24208.88359613 -.00002870  00000-0 -16234-3 0  9999,2 52617  53.2207  41.3561 0000066  17.3679 342.7316 15.08845251121792,6917.864,95.437,539.775,539.684,0.0
52617.0,STARLINK-3996,PAYLOAD,2024-07-26 22:47:45,15.08850417,1.17e-05,53.2204,41.0577,164.9947,195.1049,-0.00010653,-1.983e-05,0.0,0 STARLINK-3996,1 52617U 22052V   24208.94983741 -.00001983  00000-0 -10653-3 0  9994,2 52617  53.2204  41.0577 0000117 164.9947 195.1049 15.08850417122184,6917.849,95.437,539.794,539.633,0.0
52617.0,STARLINK-3996,PAYLOAD,2024-07-28 05:00:06,15.08830944,8.35e-05,53.2188,35.4067,95.9425,264.1663,9.3758e-05,1.204e-05,0.0,0 STARLINK-3996,1 52617U 22052V   24210.20840936  .00001204  00000-0  93758-4 0  9996,2 52617  53.2188  35.4067 0000835  95.9425 264.1663 15.08830944122370,6917.908,95.438,540.351,539.195,0.0
52617.0,STARLINK-3996,PAYLOAD,2024-07-28 19:18:34,15.08822779,0.0001206,53.2184,32.7324,108.8484,251.2639,0.00038804,5.89e-05,0.0,0 STARLINK-3996,1 52617U 22052V   24210.80456970  .00005890  00000-0  38804-3 0  9998,2 52617  53.2184  32.7324 0001206 108.8484 251.2639 15.08822779122089,6917.933,95.439,540.632,538.964,0.0
52617.0,STARLINK-3996,PAYLOAD,2024-07-29 04:50:53,15.0884476,0.0001044,53.2187,30.9502,94.5325,265.5787,6.156e-05,6.92e-06,0.0,0 STARLINK-3996,1 52617U 22052V   24211.20200606  .00000692  00000-0  61560-4 0  9997,2 52617  53.2187  30.9502 0001044  94.5325 265.5787 15.08844760122520,6917.866,95.437,540.453,539.009,0.0
52617.0,STARLINK-3996,PAYLOAD,2024-07-29 11:12:26,15.08835051,7.94e-05,53.219,29.7613,142.9191,217.1856,0.00012726,1.738e-05,0.0,0 STARLINK-3996,1 52617U 22052V   24211.46697025  .00001738  00000-0  12726-3 0  9991,2 52617  53.2190  29.7613 0000794 142.9191 217.1856 15.08835051122560,6917.896,95.438,540.31,539.211,0.0
52617.0,STARLINK-3996,PAYLOAD,2024-07-29 19:09:22,15.08837977,0.0001266,53.2186,28.275,103.2079,256.9055,0.00014454,2.013e-05,0.0,0 STARLINK-3996,1 52617U 22052V   24211.79817212  .00002013  00000-0  14454-3 0  9996,2 52617  53.2186  28.2750 0001266 103.2079 256.9055 15.08837977122236,6917.887,95.438,540.627,538.876,0.0
52617.0,STARLINK-3996,PAYLOAD,2024-07-30 04:41:41,15.08833044,6.33e-05,53.2182,26.4918,137.0713,223.0329,9.5003e-05,1.224e-05,0.0,0 STARLINK-3996,1 52617U 22052V   24212.19561520  .00001224  00000-0  95003-4 0  9992,2 52617  53.2182  26.4918 0000633 137.0713 223.0329 15.08833044122291,6917.902,95.438,540.205,539.329,0.0
52617.0,STARLINK-3996,PAYLOAD,2024-07-30 20:35:32,15.08856416,0.0001309,53.2181,23.5178,93.9727,266.1415,-0.0001863,-3.253e-05,0.0,0 STARLINK-3996,1 52617U 22052V   24212.85801040 -.00003253  00000-0 -18630-3 0  9995,2 52617  53.2181  23.5178 0001309  93.9727 266.1415 15.08856416122777,6917.83,95.437,540.601,538.79,0.0
52617.0,STARLINK-3996,PAYLOAD,2024-07-31 04:32:28,15.08843646,0.0001551,53.219,22.0253,78.6674,281.4493,5.6871e-05,6.17e-06,0.0,0 STARLINK-3996,1 52617U 22052V   24213.18921622  .00000617  00000-0  56871-4 0  9990,2 52617  53.2190  22.0253 0001551  78.6674 281.4493 15.08843646122828,6917.869,95.437,540.807,538.661,0.0
52617.0,STARLINK-3996,PAYLOAD,2024-07-31 18:50:56,15.08845102,0.0001181,53.218,19.3527,82.0908,278.0218,0.00011094,1.478e-05,0.0,0 STARLINK-3996,1 52617U 22052V   24213.78537458  .00001478  00000-0  11094-3 0  9999,2 52617  53.2180  19.3527 0001181  82.0908 278.0218 15.08845102122532,6917.865,95.437,540.547,538.913,0.0
52617.0,STARLINK-3996,PAYLOAD,2024-08-01 10:44:47,15.0884696,0.0001293,53.2179,16.3786,81.6268,278.4871,0.00017,2.419e-05,0.0,0 STARLINK-3996,1 52617U 22052V   24214.44777242  .00002419  00000-0  17000-3 0  9999,2 52617  53.2179  16.3786 0001293  81.6268 278.4871 15.08846960122635,6917.859,95.437,540.619,538.83,0.0
